#dP2020  2 19  0  0  0.00000000      97 __u+U IGS08 FIT  IAC
## 2093 259200.00000000   900.00000000 58898 0.0000000000000
+  113   C01C04C05C06C07C08C09C10C11C12C13C14C16C19C20C21C22
+        C23C24C25C26C27C28C29C30C32C33C34C35C36C37E01E02E03
+        E04E05E07E08E09E11E12E13E14E15E18E19E21E24E25E26E27
+        E30E31E33E36G01G02G03G04G05G06G07G08G09G10G11G12G13
+        G14G15G16G17G18G19G20G21G22G23G24G25G26G27G28G29G30
+        G31G32J01J02J03J07R01R02R03R04R05R07R08R09R11R12R13
+        R14R15R16R17R18R19R20R21R22R23R26  0  0  0  0  0  0
++        13 16 13  8  8  8  8  8  7  7  8  8  8  7  7  7  7
++         7  7  7  7  8  7  8  8  7  8  7  8  8  8  4  4  4
++         4  4  4  4  4  4  4  4  4  4  5  4  4  4  4  4  4
++         4  4  4  4  3  3  3  3  3  3  3  3  3  3  3  3  3
++         3  3  3  3  3  3  3  3  3  3  3  3  3  3  3  3  3
++         3  3  8  8  8  0  6  5  5  5  5  5  5  5  5  5  6
++         5  5  6  5  5  6  6  5  5  5  8  0  0  0  0  0  0
%c M  cc GPS ccc cccc cccc cccc cccc ccccc ccccc ccccc ccccc
%c cc cc ccc ccc cccc cccc cccc cccc ccccc ccccc ccccc ccccc
%f  1.2500000  1.025000000  0.00000000000  0.000000000000000
%f  0.0000000  0.000000000  0.00000000000  0.000000000000000
%i    0    0    0    0      0      0      0      0         0
%i    0    0    0    0      0      0      0      0         0
/* INFORMATION & ANALYSIS CENTER (IAC)            FINAL DATA
/* S/V CLOCKS ARE ALIGNED TO GNSS TIME                      
/* G:C1WC2W R:C1PC2P E:C1XC5X C:C2IC6I J:C1CC2S             
/* PCV:IGS14_2091 OL/AL:FES2004  NONE     YN ORB:CoN CLK:CoN
*  2020 02 19  6  0  0.00000000
PC01 -32319.001140  27089.672398     13.371970    217.957280
PC04 -39631.129933  14445.665685   -207.800504 999999.999999
PC05  21942.225014  35967.665276  -1031.779381   -366.902729
PC06 -20473.181142  36155.408946   5994.738604    244.785535
PC07  -7450.616398  31473.087030  27464.906776    -82.897322
PC08 -19091.284115  18309.669732 -32824.258304   -123.341606
PC09 -11463.136812  36097.946604  18367.475646    344.363300
PC10   3996.609788  37733.650628  18972.828830   -675.030439
PC11 -24047.675788  12484.305236   6847.145171   -191.182408
PC12 -18401.649696  -3113.812729  20793.979705    320.816986
PC13  -3591.583015  22823.376401 -35177.646094    275.512902
PC14 -14666.687468   7856.051216 -22381.585215    167.059466
PC16 -18545.427396  36857.889879   8240.788959   -771.066253
PC19  10718.731120 -17501.424712  18928.903759    329.757866
PC20  16221.802658   2357.521594  22603.907564   -733.911932
PC21 -12200.976191 -21489.561808 -12930.187485    -90.337104
PC22  -1080.452453 -27563.307590   4136.004213   -877.002245
PC23   2712.385610  17642.203863  21447.714135   -895.470168
PC24 -26405.658675  -5430.211460   7260.733147   -931.236023
PC25 -16306.457975   9358.989522  20622.751151   -521.012386
PC26 -21285.789971 -15421.399143  -9431.520788    576.706574
PC27  11276.808647  11329.546610 -22885.642306    280.946760
PC28  -7290.282752  20553.162874 -17407.331560    271.886060
PC29  20793.802034 -18527.786896   1809.148245    189.680681
PC30  22903.547067  -5106.936092 -15118.054003    274.153412
PC32  12393.423594  21390.804724  12965.108981   -874.056814
PC33 -10664.184444  17529.357464 -18914.063343   -925.581014
PC34 -23030.274092   5332.806833  14808.464913   -482.285896
PC35   6710.370263 -20870.444934  17292.230292   -891.447231
PC36  16687.160971  -8830.637672 -20530.395337   -828.631885
PC37  20460.349564  16124.702127   9994.007443   -877.486923
PE01  -7842.843456  15128.390046  24199.561417   -797.896665
PE02   7753.974517 -15209.801616 -24187.103033    113.754401
PE03  13312.351205 -25237.361588   7850.690525   -267.907205
PE04   -516.169559  27695.660443  10433.791552   -468.798937
PE05  18448.660167  -7956.824186  21736.197372   -404.147399
PE07 -12769.213094 -13852.580764 -22825.086463   -343.022855
PE08    242.095284 -27612.988359 -10646.063533   6218.262368
PE09  12768.070770  13667.988504  22946.814946   6151.558049
PE11  21619.742623   7417.504061 -18814.972759   1332.985844
PE12   1098.248303  16463.804130 -24562.111505   5944.138975
PE13 -21416.978324  -7443.387846  19037.424847    398.491976
PE14  21008.877387 -17399.005196  -7937.976175   -910.685204
PE15  -1365.236620 -16353.796084  24649.503342    876.781764
PE18 -11891.508324  25656.176672  -7535.379054  -1008.145206
PE19 -14253.879055  24021.210089  -9789.493298     -1.470385
PE21 -21209.543601  -2542.891630  20489.400951   -583.484420
PE24  22154.666188  19048.723710  -4663.091641   5602.510919
PE25  21246.761340   2635.097078 -20434.644753   -504.355377
PE26 -28957.659522   5828.221971   1937.681621   3512.571109
PE27 -22282.405740 -18915.345924   4721.756555    279.273419
PE30  -9965.110210 -24180.715369 -13892.087222   4131.725797
PE31  10257.195830  24113.190209  13764.578765   -471.755738
PE33 -19516.728285  15666.069522 -15785.630929   -470.224243
PE36  28931.564111  -5863.957385  -2220.600536    596.427989
PG01  12669.969379  13706.321102 -19229.728556   -299.682289
PG02  11713.746560 -14121.938830  19817.533269   -407.435935
PG03  13257.300393  22980.328077   2024.185238    -97.988139
PG04   5689.258718  16433.900109  20075.581418    -50.916378
PG05   1613.316646 -20886.277915  16077.437960     -7.826944
PG06  22373.258152  -7247.282078  12439.238630   -212.010232
PG07  25362.681061   6195.685054   6402.260069   -217.746762
PG08  -3206.708654  22503.641802 -13501.238229    -24.271408
PG09  14004.158186   6512.174650  21554.750585   -158.852402
PG10 -16200.767317    278.504975 -21008.172919   -250.139823
PG11   1201.780803  17071.199052 -20837.044076   -357.033738
PG12  -9820.784596 -24769.995212   -955.499678    149.653674
PG13  11695.336616 -22435.416659  -8066.957088    -11.776246
PG14 -18462.657718  18160.509380  -5097.755767    -31.529293
PG15   -160.763768 -22593.854317 -13960.654417   -250.564550
PG16  -3450.642500  20427.098929  16145.559717   -126.081042
PG17  19459.952117 -10780.021227 -14045.471290    218.508487
PG18   3621.553742  15387.424611 -21859.325510      3.326709
PG19  19747.549021 -15994.581931  -8023.985873   -196.712007
PG20 -19961.051518  -9655.279650 -14856.862131    527.872389
PG21 -25678.289316  -3776.175381   5746.516861    -39.025925
PG22   9482.876028  24050.269554  -6126.987202   -784.791170
PG23   7889.064582  15395.527673  20416.283237   -135.335852
PG24 -10981.763687 -14432.903754 -19708.408677     -9.279338
PG25 -16785.439233 -18174.961237   9792.544606    -12.599265
PG26  -9686.994621  13322.253755  20764.433464    151.320452
PG27 -11851.055401  23250.536270  -3978.276855   -215.337886
PG28  15058.371112   -807.629443 -21259.680949    738.284192
PG29 -12144.527506  -8215.121938  22112.365057    -36.655098
PG30  26167.495509  -1307.889374  -4945.107664   -156.613702
PG31 -21030.054875   8361.507381  14230.433667    -24.172197
PG32 -19170.087533  11859.727551 -13866.761378    216.080061
PJ01 -18532.063288  30423.522743 -17964.203272   -325.715133
PJ02 -26795.529713  20207.860067  30346.068205     -1.407179
PJ03 -34081.111345  24903.518643   5887.824095     -0.588228
PJ07 -25417.344676  33636.708095    -32.579987 999999.999999
PR01  11037.039502  -4085.130285  22629.473575     57.309712
PR02   5964.663712 -22644.233023  10222.368587    412.660049
PR03  -2328.937949 -24369.531143  -7217.533326     10.242005
PR04  -9081.662948 -12154.436930 -20481.773547     39.237979
PR05 -10697.549648   6871.550515 -22100.779954     45.277480
PR07   2636.213652  24103.488086   7888.104728    -33.387549
PR08   9197.323583  12156.137037  20498.920848    -50.595420
PR09  -1338.201697  12142.468787  22411.603388    117.588055
PR11  21980.643383  12826.573030  -2012.618297    -13.975267
PR12  18780.457205   2388.537597 -17057.988652    106.992670
PR13   4498.464689 -10072.479216 -23020.446520    -34.979194
PR14 -12161.338635 -16447.933220 -15228.339425     48.292565
PR15 -21747.359594 -13289.324966   1185.468681    105.959639
PR16 -18757.309764  -1698.247855  17243.817214     -1.575659
PR17    878.944001 -12004.018590  22499.792745    302.234815
PR18 -15046.360565  -2682.475120  20423.896094     25.629595
PR19 -23186.568393   7354.111072   7683.988432    -79.808568
PR20 -17561.522934  14240.216370 -11748.037300   -404.485580
PR21   -103.038922  11599.000385 -22713.510833   -105.877034
PR22  17221.388067    795.663355 -18841.268349    -14.574020
PR23  22991.099216 -10986.681550  -1239.365965    287.336135
PR26 -19858.470145  13986.597247  -7811.770514   -406.504688
EOF
